CCSDS_OMM_VERS = 2.0
CREATION_DATE  = 
ORIGINATOR     = 

OBJECT_NAME    = IDEFIX & ARIANE 42P R/B
OBJECT_ID      = 2002-021B
CENTER_NAME    = EARTH
REF_FRAME      = TEME
TIME_SYSTEM    = UTC
MEAN_ELEMENT_THEORY = SGP/SGP4

EPOCH          = 2026-02-02T09:29:51.763200
MEAN_MOTION    = 14.30998928
ECCENTRICITY   = .0010806
INCLINATION    = 98.5836
RA_OF_ASC_NODE = 332.4320
ARG_OF_PERICENTER = 294.6332
MEAN_ANOMALY   = 65.3725

EPHEMERIS_TYPE = 0
CLASSIFICATION_TYPE = U
NORAD_CAT_ID   = 27422
ELEMENT_SET_NO = 999
REV_AT_EPOCH   = 23897
BSTAR          = .13698E-3
MEAN_MOTION_DOT = .317E-5
MEAN_MOTION_DDOT = 0

CCSDS_OMM_VERS = 2.0
CREATION_DATE  = 
ORIGINATOR     = 

OBJECT_NAME    = AQUA
OBJECT_ID      = 2002-022A
CENTER_NAME    = EARTH
REF_FRAME      = TEME
TIME_SYSTEM    = UTC
MEAN_ELEMENT_THEORY = SGP/SGP4

EPOCH          = 2026-02-02T12:20:15.620352
MEAN_MOTION    = 14.61884504
ECCENTRICITY   = .0001701
INCLINATION    = 98.4112
RA_OF_ASC_NODE = 0.2561
ARG_OF_PERICENTER = 58.4962
MEAN_ANOMALY   = 51.3542

EPHEMERIS_TYPE = 0
CLASSIFICATION_TYPE = U
NORAD_CAT_ID   = 27424
ELEMENT_SET_NO = 999
REV_AT_EPOCH   = 26359
BSTAR          = .23145E-3
MEAN_MOTION_DOT = .1108E-4
MEAN_MOTION_DDOT = 0

CCSDS_OMM_VERS = 2.0
CREATION_DATE  = 
ORIGINATOR     = 

OBJECT_NAME    = CZ-4B R/B
OBJECT_ID      = 2002-024C
CENTER_NAME    = EARTH
REF_FRAME      = TEME
TIME_SYSTEM    = UTC
MEAN_ELEMENT_THEORY = SGP/SGP4

EPOCH          = 2026-02-02T09:54:58.828032
MEAN_MOTION    = 14.14540879
ECCENTRICITY   = .0051031
INCLINATION    = 98.8914
RA_OF_ASC_NODE = 86.9845
ARG_OF_PERICENTER = 122.7116
MEAN_ANOMALY   = 248.8215

EPHEMERIS_TYPE = 0
CLASSIFICATION_TYPE = U
NORAD_CAT_ID   = 27432
ELEMENT_SET_NO = 999
REV_AT_EPOCH   = 22425
BSTAR          = .5596E-4
MEAN_MOTION_DOT = .65E-6
MEAN_MOTION_DDOT = 0

CCSDS_OMM_VERS = 2.0
CREATION_DATE  = 
ORIGINATOR     = 

OBJECT_NAME    = MIDORI II (ADEOS-II)
OBJECT_ID      = 2002-056A
CENTER_NAME    = EARTH
REF_FRAME      = TEME
TIME_SYSTEM    = UTC
MEAN_ELEMENT_THEORY = SGP/SGP4

EPOCH          = 2026-02-02T10:49:22.900800
MEAN_MOTION    = 14.29256351
ECCENTRICITY   = .0002115
INCLINATION    = 98.7708
RA_OF_ASC_NODE = 351.6997
ARG_OF_PERICENTER = 92.3416
MEAN_ANOMALY   = 267.8007

EPHEMERIS_TYPE = 0
CLASSIFICATION_TYPE = U
NORAD_CAT_ID   = 27597
ELEMENT_SET_NO = 999
REV_AT_EPOCH   = 20526
BSTAR          = .1526E-3
MEAN_MOTION_DOT = .343E-5
MEAN_MOTION_DDOT = 0

CCSDS_OMM_VERS = 2.0
CREATION_DATE  = 
ORIGINATOR     = 

OBJECT_NAME    = H-2A R/B
OBJECT_ID      = 2002-056E
CENTER_NAME    = EARTH
REF_FRAME      = TEME
TIME_SYSTEM    = UTC
MEAN_ELEMENT_THEORY = SGP/SGP4

EPOCH          = 2026-02-02T11:22:36.082272
MEAN_MOTION    = 14.33733574
ECCENTRICITY   = .0068997
INCLINATION    = 98.3139
RA_OF_ASC_NODE = 355.1943
ARG_OF_PERICENTER = 266.6047
MEAN_ANOMALY   = 203.0728

EPHEMERIS_TYPE = 0
CLASSIFICATION_TYPE = U
NORAD_CAT_ID   = 27601
ELEMENT_SET_NO = 999
REV_AT_EPOCH   = 20906
BSTAR          = .13467E-3
MEAN_MOTION_DOT = .342E-5
MEAN_MOTION_DDOT = 0

CCSDS_OMM_VERS = 2.0
CREATION_DATE  = 
ORIGINATOR     = 

OBJECT_NAME    = CZ-4B R/B
OBJECT_ID      = 2003-049C
CENTER_NAME    = EARTH
REF_FRAME      = TEME
TIME_SYSTEM    = UTC
MEAN_ELEMENT_THEORY = SGP/SGP4

EPOCH          = 2026-02-02T10:46:45.594048
MEAN_MOTION    = 14.54978289
ECCENTRICITY   = .0047842
INCLINATION    = 98.6837
RA_OF_ASC_NODE = 26.9826
ARG_OF_PERICENTER = 340.6608
MEAN_ANOMALY   = 19.2771

EPHEMERIS_TYPE = 0
CLASSIFICATION_TYPE = U
NORAD_CAT_ID   = 28059
ELEMENT_SET_NO = 999
REV_AT_EPOCH   = 18147
BSTAR          = .13141E-3
MEAN_MOTION_DOT = .522E-5
MEAN_MOTION_DDOT = 0

CCSDS_OMM_VERS = 2.0
CREATION_DATE  = 
ORIGINATOR     = 

OBJECT_NAME    = CZ-2C R/B
OBJECT_ID      = 2004-012C
CENTER_NAME    = EARTH
REF_FRAME      = TEME
TIME_SYSTEM    = UTC
MEAN_ELEMENT_THEORY = SGP/SGP4

EPOCH          = 2026-02-02T03:03:46.638432
MEAN_MOTION    = 15.60459111
ECCENTRICITY   = .00166124
INCLINATION    = 97.7321
RA_OF_ASC_NODE = 95.1518
ARG_OF_PERICENTER = 82.8459
MEAN_ANOMALY   = 277.4686

EPHEMERIS_TYPE = 0
CLASSIFICATION_TYPE = U
NORAD_CAT_ID   = 28222
ELEMENT_SET_NO = 999
REV_AT_EPOCH   = 19872
BSTAR          = .55332494E-3
MEAN_MOTION_DOT = .45844E-3
MEAN_MOTION_DDOT = 0

CCSDS_OMM_VERS = 2.0
CREATION_DATE  = 
ORIGINATOR     = 

OBJECT_NAME    = SL-16 R/B
OBJECT_ID      = 2004-021B
CENTER_NAME    = EARTH
REF_FRAME      = TEME
TIME_SYSTEM    = UTC
MEAN_ELEMENT_THEORY = SGP/SGP4

EPOCH          = 2026-02-02T05:48:37.370016
MEAN_MOTION    = 14.14589390
ECCENTRICITY   = .0002729
INCLINATION    = 71.0011
RA_OF_ASC_NODE = 306.8848
ARG_OF_PERICENTER = 98.3777
MEAN_ANOMALY   = 261.7654

EPHEMERIS_TYPE = 0
CLASSIFICATION_TYPE = U
NORAD_CAT_ID   = 28353
ELEMENT_SET_NO = 999
REV_AT_EPOCH   = 11782
BSTAR          = -.44787E-4
MEAN_MOTION_DOT = -.134E-5
MEAN_MOTION_DDOT = 0

CCSDS_OMM_VERS = 2.0
CREATION_DATE  = 
ORIGINATOR     = 

OBJECT_NAME    = CZ-4B R/B
OBJECT_ID      = 2004-035C
CENTER_NAME    = EARTH
REF_FRAME      = TEME
TIME_SYSTEM    = UTC
MEAN_ELEMENT_THEORY = SGP/SGP4

EPOCH          = 2026-02-02T08:47:57.352128
MEAN_MOTION    = 15.28392166
ECCENTRICITY   = .0034342
INCLINATION    = 97.3544
RA_OF_ASC_NODE = 68.0414
ARG_OF_PERICENTER = 94.0616
MEAN_ANOMALY   = 266.4550

EPHEMERIS_TYPE = 0
CLASSIFICATION_TYPE = U
NORAD_CAT_ID   = 28415
ELEMENT_SET_NO = 999
REV_AT_EPOCH   = 17451
BSTAR          = .29132E-3
MEAN_MOTION_DOT = .8121E-4
MEAN_MOTION_DDOT = 0

CCSDS_OMM_VERS = 2.0
CREATION_DATE  = 
ORIGINATOR     = 

OBJECT_NAME    = CZ-2C R/B
OBJECT_ID      = 2004-046B
CENTER_NAME    = EARTH
REF_FRAME      = TEME
TIME_SYSTEM    = UTC
MEAN_ELEMENT_THEORY = SGP/SGP4

EPOCH          = 2026-02-02T08:32:33.296352
MEAN_MOTION    = 14.26978415
ECCENTRICITY   = .0138182
INCLINATION    = 98.1999
RA_OF_ASC_NODE = 310.5336
ARG_OF_PERICENTER = 259.3355
MEAN_ANOMALY   = 99.2241

EPHEMERIS_TYPE = 0
CLASSIFICATION_TYPE = U
NORAD_CAT_ID   = 28480
ELEMENT_SET_NO = 999
REV_AT_EPOCH   = 10346
BSTAR          = .7736E-4
MEAN_MOTION_DOT = .166E-5
MEAN_MOTION_DDOT = 0

CCSDS_OMM_VERS = 2.0
CREATION_DATE  = 
ORIGINATOR     = 

OBJECT_NAME    = ARIANE 5 R/B
OBJECT_ID      = 2004-049H
CENTER_NAME    = EARTH
REF_FRAME      = TEME
TIME_SYSTEM    = UTC
MEAN_ELEMENT_THEORY = SGP/SGP4

EPOCH          = 2026-02-02T11:10:16.313376
MEAN_MOTION    = 14.85187142
ECCENTRICITY   = .0085476
INCLINATION    = 98.2570
RA_OF_ASC_NODE = 200.6188
ARG_OF_PERICENTER = 105.0664
MEAN_ANOMALY   = 256.0027

EPHEMERIS_TYPE = 0
CLASSIFICATION_TYPE = U
NORAD_CAT_ID   = 28499
ELEMENT_SET_NO = 999
REV_AT_EPOCH   = 14056
BSTAR          = .13269E-3
MEAN_MOTION_DOT = .115E-4
MEAN_MOTION_DDOT = 0

CCSDS_OMM_VERS = 2.0
CREATION_DATE  = 
ORIGINATOR     = 

OBJECT_NAME    = CZ-2D R/B
OBJECT_ID      = 2005-024B
CENTER_NAME    = EARTH
REF_FRAME      = TEME
TIME_SYSTEM    = UTC
MEAN_ELEMENT_THEORY = SGP/SGP4

EPOCH          = 2026-02-02T00:15:43.621920
MEAN_MOTION    = 15.57012689
ECCENTRICITY   = .00067883
INCLINATION    = 97.3610
RA_OF_ASC_NODE = 46.9354
ARG_OF_PERICENTER = 133.1336
MEAN_ANOMALY   = 227.0488

EPHEMERIS_TYPE = 0
CLASSIFICATION_TYPE = U
NORAD_CAT_ID   = 28738
ELEMENT_SET_NO = 999
REV_AT_EPOCH   = 13422
BSTAR          = .4891386E-3
MEAN_MOTION_DOT = .35344E-3
MEAN_MOTION_DDOT = 0

