IDEFIX & ARIANE 42P R/B 
1 27422U 02021B   26033.39573800  .00000317  00000+0  13698-3 0  9991
2 27422  98.5836 332.4320 0010806 294.6332  65.3725 14.30998928238979
AQUA                    
1 27424U 02022A   26033.51406968  .00001108  00000+0  23145-3 0  9995
2 27424  98.4112   0.2561 0001701  58.4962  51.3542 14.61884504263599
CZ-4B R/B               
1 27432U 02024C   26033.41318088  .00000065  00000+0  55960-4 0  9992
2 27432  98.8914  86.9845 0051031 122.7116 248.8215 14.14540879224257
MIDORI II (ADEOS-II)    
1 27597U 02056A   26033.45095950  .00000343  00000+0  15260-3 0  9990
2 27597  98.7708 351.6997 0002115  92.3416 267.8007 14.29256351205268
H-2A R/B                
1 27601U 02056E   26033.47402873  .00000342  00000+0  13467-3 0  9990
2 27601  98.3139 355.1943 0068997 266.6047 203.0728 14.33733574209060
CZ-4B R/B               
1 28059U 03049C   26033.44913882  .00000522  00000+0  13141-3 0  9994
2 28059  98.6837  26.9826 0047842 340.6608  19.2771 14.54978289181477
CZ-2C R/B               
1 28222U 04012C   26033.12762313  .00045844  00000+0  55332-3 0  9997
2 28222  97.7321  95.1518 0016612  82.8459 277.4686 15.60459111198728
SL-16 R/B               
1 28353U 04021B   26033.24209919 -.00000134  00000+0 -44787-4 0  9991
2 28353  71.0011 306.8848 0002729  98.3777 261.7654 14.14589390117825
CZ-4B R/B               
1 28415U 04035C   26033.36663602  .00008121  00000+0  29132-3 0  9999
2 28415  97.3544  68.0414 0034342  94.0616 266.4550 15.28392166174518
CZ-2C R/B               
1 28480U 04046B   26033.35594093  .00000166  00000+0  77360-4 0  9997
2 28480  98.1999 310.5336 0138182 259.3355  99.2241 14.26978415103463
ARIANE 5 R/B            
1 28499U 04049H   26033.46546659  .00001150  00000+0  13269-3 0  9998
2 28499  98.2570 200.6188 0085476 105.0664 256.0027 14.85187142140561
CZ-2D R/B               
1 28738U 05024B   26033.01092155  .00035344  00000+0  48914-3 0  9993
2 28738  97.3610  46.9354 0006788 133.1336 227.0488 15.57012689134223
